O3B FM10                
1 40348U 14083A   26070.41282342 -.00000024  00000+0  00000+0 0  9991
2 40348   0.0429 348.2570 0002651   1.0660  10.6675  5.00115268204999
O3B FM11                
1 40349U 14083B   26074.02357238 -.00000020  00000+0  00000+0 0  9996
2 40349   0.0573   0.3012 0003088 341.5889  18.0955  5.00115575205206
O3B FM12                
1 40350U 14083C   26074.05065926 -.00000020  00000+0  00000+0 0  9991
2 40350   0.0566 359.5634 0002612 347.4659  12.9606  5.00115981205219
O3B FM9                 
1 40351U 14083D   26074.07749042 -.00000020  00000+0  00000+0 0  9992
2 40351   0.0584   0.4596 0002719 352.5981   6.9352  5.00115908205368
ASTRA 2G                
1 40364U 14089A   26074.25391950  .00000000  00000+0  00000+0 0  9990
2 40364   0.0201 358.7217 0004487  34.8033 258.9447  1.00269178 41029
SES-9                   
1 41380U 16013A   26071.59819078 -.00000344  00000+0  00000+0 0  9990
2 41380   0.0283 280.9183 0001753 124.7546  88.1882  1.00271324 36472
SES-10                  
1 42432U 17017A   26072.77082808 -.00000273  00000+0  00000+0 0  9999
2 42432   0.0225  69.0512 0002549 296.9547  15.9789  1.00273246 32796
SES-15                  
1 42709U 17026A   26071.61751647  .00000060  00000+0  00000+0 0  9995
2 42709   0.0388 330.9168 0000706  38.8107 253.6487  1.00270524  6465
SES-11 (ECHOSTAR 105)   
1 42967U 17063A   26074.18955770 -.00000090  00000+0  00000+0 0  9994
2 42967   0.0312  58.8383 0002421 296.3024 140.9485  1.00272076 30780
SES-14                  
1 43175U 18012B   26071.34844264 -.00000278  00000+0  00000+0 0  9999
2 43175   0.0142  73.2078 0000900 285.1964 249.4941  1.00272273  6058
O3B FM15                
1 43231U 18024A   26074.14425745 -.00000019  00000+0  00000+0 0  9998
2 43231   0.0491   1.4753 0002676 348.5914   9.9247  5.00115704146324
O3B FM16                
1 43232U 18024B   26074.19662649 -.00000019  00000+0  00000+0 0  9990
2 43232   0.0456   3.7624 0002802 343.7498  12.4776  5.00115906146244
O3B FM14                
1 43233U 18024C   26071.63880927 -.00000023  00000+0  00000+0 0  9993
2 43233   0.0439   2.7730 0002842 349.0319   8.1868  5.00115666146122
O3B FM13                
1 43234U 18024D   26072.10444450 -.00000022  00000+0  00000+0 0  9993
2 43234   0.0487 334.7219 0003796 336.3210  48.9207  5.00115630146258
SES-12                  
1 43488U 18049A   26073.37342400 -.00000270  00000+0  00000+0 0  9998
2 43488   0.0192  63.5919 0001860 239.6464  98.1739  1.00271135 28460
O3B FM20                
1 44112U 19020A   26073.86362964 -.00000020  00000+0  00000+0 0  9997
2 44112   0.0522   0.0965 0002759 341.6917  18.1985  5.00115512126851
O3B FM19                
1 44113U 19020B   26074.09063635 -.00000020  00000+0  00000+0 0  9997
2 44113   0.0584 353.1915 0004213 354.1700  12.6246  5.00115992126731
